NORAD_CAT_ID,OBJECT_NAME,OBJECT_TYPE,EPOCH,MEAN_MOTION,ECCENTRICITY,INCLINATION,RA_OF_ASC_NODE,ARG_OF_PERICENTER,MEAN_ANOMALY,BSTAR,MEAN_MOTION_DOT,MEAN_MOTION_DDOT,TLE_LINE0,TLE_LINE1,TLE_LINE2,SEMIMAJOR_AXIS,PERIOD,APOGEE,PERIGEE,DECAYED
53170.0,STARLINK-4095,PAYLOAD,2022-11-03 20:36:24,15.08841914,0.0001672,53.2158,244.1309,48.0815,312.032,8.045800000000001e-05,9.93e-06,0.0,0 STARLINK-4095,1 53170U 22083AQ  22307.85861359  .00000993  00000-0  80458-4 0  9990,2 53170  53.2158 244.1309 0001672  48.0815 312.0320 15.08841914 16972,6917.875,95.437,540.896,538.5830000000002,0.0
53170.0,STARLINK-4095,PAYLOAD,2022-11-04 01:22:33,15.08839864,0.0001948,53.2167,243.237,42.3625,317.7518,6.1059e-05,6.84e-06,0.0,0 STARLINK-4095,1 53170U 22083AQ  22308.05733574  .00000684  00000-0  61059-4 0  9993,2 53170  53.2167 243.2370 0001948  42.3625 317.7518 15.08839864 17009,6917.880999999999,95.438,541.0930000000002,538.398,0.0
53170.0,STARLINK-4095,PAYLOAD,2022-11-05 02:48:44,15.08838695,0.0001574,53.2148,238.4821,48.2324,311.8802,-8.9522e-05,-1.712e-05,0.0,0 STARLINK-4095,1 53170U 22083AQ  22309.11717980 -.00001712  00000-0 -89522-4 0  9994,2 53170  53.2148 238.4821 0001574  48.2324 311.8802 15.08838695 17799,6917.884,95.438,540.8380000000002,538.661,0.0
53170.0,STARLINK-4095,PAYLOAD,2022-11-05 12:21:04,15.08823383,0.0002015,53.217,236.6923,45.5439,314.5718,-0.00018955,-3.302e-05,0.0,0 STARLINK-4095,1 53170U 22083AQ  22309.51463516 -.00003302  00000-0 -18955-3 0  9999,2 53170  53.2170 236.6923 0002015  45.5439 314.5718 15.08823383 17227,6917.931,95.439,541.19,538.4019999999998,0.0
53170.0,STARLINK-4095,PAYLOAD,2022-11-06 02:39:32,15.08832202,0.0002222,53.2166,234.0173,40.9659,319.1499,-3.3621e-05,-8.23e-06,0.0,0 STARLINK-4095,1 53170U 22083AQ  22310.11079069 -.00000823  00000-0 -33621-4 0  9996,2 53170  53.2166 234.0173 0002222  40.9659 319.1499 15.08832202 17940,6917.904,95.438,541.306,538.232,0.0
53170.0,STARLINK-4095,PAYLOAD,2022-11-06 12:11:51,15.08832635,0.0001583,53.2146,232.2361,46.6313,313.481,-7.5257000000000015e-06,-4.08e-06,0.0,0 STARLINK-4095,1 53170U 22083AQ  22310.50822970 -.00000408  00000-0 -75257-5 0  9997,2 53170  53.2146 232.2361 0001583  46.6313 313.4810 15.08832635 17377,6917.903,95.438,540.863,538.673,0.0
53170.0,STARLINK-4095,PAYLOAD,2022-11-07 05:41:06,15.0882469,0.0001715,53.2173,228.9627,39.2397,320.872,-1.043e-05,-4.54e-06,0.0,0 STARLINK-4095,1 53170U 22083AQ  22311.23687849 -.00000454  00000-0 -10430-4 0  9994,2 53170  53.2173 228.9627 0001715  39.2397 320.8720 15.08824690 18118,6917.927,95.439,540.979,538.606,0.0
53170.0,STARLINK-4095,PAYLOAD,2022-11-07 18:24:11,15.08823806,0.0002101,53.2156,226.5848,49.0507,311.0667,4.5873e-05,4.42e-06,0.0,0 STARLINK-4095,1 53170U 22083AQ  22311.76680521  .00000442  00000-0  45873-4 0  9996,2 53170  53.2156 226.5848 0002101  49.0507 311.0667 15.08823806 17568,6917.93,95.439,541.248,538.341,0.0
53170.0,STARLINK-4095,PAYLOAD,2022-11-08 00:45:43,15.08836214,0.0001969,53.2147,225.3959,42.4589,317.6555,3.3975e-05,2.53e-06,0.0,0 STARLINK-4095,1 53170U 22083AQ  22312.03175894  .00000253  00000-0  33975-4 0  9999,2 53170  53.2147 225.3959 0001969  42.4589 317.6555 15.08836214 18236,6917.892,95.438,541.119,538.395,0.0
53170.0,STARLINK-4095,PAYLOAD,2022-11-08 13:28:46,15.08862059,0.0001923,53.2148,223.0174,42.4554,317.6586,0.0002211,3.235e-05,0.0,0 STARLINK-4095,1 53170U 22083AQ  22312.56165126  .00003235  00000-0  22110-3 0  9995,2 53170  53.2148 223.0174 0001923  42.4554 317.6586 15.08862059 18312,6917.813,95.436,541.008,538.3480000000002,0.0
53170.0,STARLINK-4095,PAYLOAD,2022-11-08 19:50:19,15.08860844,0.0001944,53.215,221.8281,42.6402,317.4741,0.00020261,2.94e-05,0.0,0 STARLINK-4095,1 53170U 22083AQ  22312.82660905  .00002940  00000-0  20261-3 0  9996,2 53170  53.2150 221.8281 0001944  42.6402 317.4741 15.08860844 17722,6917.816999999999,95.436,541.0269999999998,538.337,0.0
53170.0,STARLINK-4095,PAYLOAD,2022-11-09 03:47:13,15.08868252,0.0001565999999999,53.2163,220.3407,41.5965,318.5146,0.00019197,2.771e-05,0.0,0 STARLINK-4095,1 53170U 22083AQ  22313.15779837  .00002771  00000-0  19197-3 0  9996,2 53170  53.2163 220.3407 0001566  41.5965 318.5146 15.08868252 17779,6917.794,95.436,540.742,538.576,0.0
53170.0,STARLINK-4095,PAYLOAD,2022-11-09 21:16:32,15.0882204,0.0002078,53.2152,217.0689,44.5793,315.5366,-0.00013244,-2.394e-05,0.0,0 STARLINK-4095,1 53170U 22083AQ  22313.88648193 -.00002394  00000-0 -13244-3 0  9996,2 53170  53.2152 217.0689 0002078  44.5793 315.5366 15.08822040 17881,6917.935,95.439,541.238,538.363,0.0
53170.0,STARLINK-4095,PAYLOAD,2022-11-10 00:27:18,15.08816965,0.0002109,53.2148,216.476,41.1591,318.956,-0.00021221,-3.662e-05,0.0,0 STARLINK-4095,1 53170U 22083AQ  22314.01896887 -.00003662  00000-0 -21221-3 0  9990,2 53170  53.2148 216.4760 0002109  41.1591 318.9560 15.08816965 18538,6917.951,95.439,541.275,538.357,0.0
53170.0,STARLINK-4095,PAYLOAD,2022-11-10 17:56:33,15.08825423,0.000228,53.2147,213.206,41.5364,318.5801,-0.00030359,-5.115e-05,0.0,0 STARLINK-4095,1 53170U 22083AQ  22314.74761299 -.00005115  00000-0 -30359-3 0  9995,2 53170  53.2147 213.2060 0002280  41.5364 318.5801 15.08825423 18642,6917.925,95.438,541.367,538.2130000000002,0.0
53170.0,STARLINK-4095,PAYLOAD,2022-11-11 03:28:52,15.08829434,0.0001633,53.2155,211.4198,48.4425,311.6707,-0.00029318,-4.95e-05,0.0,0 STARLINK-4095,1 53170U 22083AQ  22315.14505238 -.00004950  00000-0 -29318-3 0  9998,2 53170  53.2155 211.4198 0001633  48.4425 311.6707 15.08829434 18700,6917.913000000001,95.438,540.9069999999998,538.648,0.0
53170.0,STARLINK-4095,PAYLOAD,2022-11-11 20:58:07,15.088117,0.0001943,53.2154,208.1492,44.1825,315.9322,0.00021991,3.211e-05,0.0,0 STARLINK-4095,1 53170U 22083AQ  22315.87369432  .00003211  00000-0  21991-3 0  9998,2 53170  53.2154 208.1492 0001943  44.1825 315.9322 15.08811700 18189,6917.967,95.439,541.1759999999998,538.488,0.0
53170.0,STARLINK-4095,PAYLOAD,2022-11-12 01:44:16,15.08820838,0.0002021,53.2157,207.2569,43.824,316.2912,0.00025319,3.742e-05,0.0,0 STARLINK-4095,1 53170U 22083AQ  22316.07241074  .00003742  00000-0  25319-3 0  9999,2 53170  53.2157 207.2569 0002021  43.8240 316.2912 15.08820838 18846,6917.939,95.439,541.202,538.406,0.0
53170.0,STARLINK-4095,PAYLOAD,2022-11-12 20:48:52,15.08844045,0.0002024,53.2158,203.688,42.6409,317.474,0.00027187,4.042e-05,0.0,0 STARLINK-4095,1 53170U 22083AQ  22316.86727867  .00004042  00000-0  27187-3 0  9994,2 53170  53.2158 203.6880 0002024  42.6409 317.4740 15.08844045 18332,6917.868,95.437,541.133,538.3330000000002,0.0
53170.0,STARLINK-4095,PAYLOAD,2022-11-13 03:10:25,15.08840739,0.0001981,53.2164,202.4994,47.06100000000001,313.0548,0.00023261,3.416e-05,0.0,0 STARLINK-4095,1 53170U 22083AQ  22317.13224253  .00003416  00000-0  23261-3 0  9999,2 53170  53.2164 202.4994 0001981  47.0610 313.0548 15.08840739 19005,6917.878000000002,95.438,541.114,538.373,0.0
53170.0,STARLINK-4095,PAYLOAD,2022-11-13 17:28:55,15.08841632,0.0001886,53.2153,199.8204,45.8759,314.2388,-0.00010847,-2.014e-05,0.0,0 STARLINK-4095,1 53170U 22083AQ  22317.72841520 -.00002014  00000-0 -10847-3 0  9997,2 53170  53.2153 199.8204 0001886  45.8759 314.2388 15.08841632 19097,6917.875,95.437,541.045,538.436,0.0
53170.0,STARLINK-4095,PAYLOAD,2022-11-14 01:25:51,15.08829816,0.0001995,53.2154,198.3347,43.6765,316.4385,-0.00018927,-3.298e-05,0.0,0 STARLINK-4095,1 53170U 22083AQ  22318.05962600 -.00003298  00000-0 -18927-3 0  9999,2 53170  53.2154 198.3347 0001995  43.6765 316.4385 15.08829816 19141,6917.9119999999975,95.438,541.1569999999998,538.396,0.0
53170.0,STARLINK-4095,PAYLOAD,2022-11-14 09:22:47,15.08835373,0.0001899,53.2157,196.8483,43.9084,316.2059,-0.00016272,-2.877e-05,0.0,0 STARLINK-4095,1 53170U 22083AQ  22318.39082202 -.00002877  00000-0 -16272-3 0  9990,2 53170  53.2157 196.8483 0001899  43.9084 316.2059 15.08835373 18564,6917.895,95.438,541.073,538.446,0.0
53170.0,STARLINK-4095,PAYLOAD,2022-11-14 15:44:19,15.08836976,0.0001681,53.2155,195.6586,46.15600000000001,313.9571,-0.00015514,-2.756e-05,0.0,0 STARLINK-4095,1 53170U 22083AQ  22318.65578042 -.00002756  00000-0 -15514-3 0  9995,2 53170  53.2155 195.6586 0001681  46.1560 313.9571 15.08836976 19234,6917.89,95.438,540.918,538.592,0.0
53170.0,STARLINK-4095,PAYLOAD,2022-11-15 01:16:37,15.08842407,0.0001923,53.2151,193.8744,45.9284,314.1866,-7.612600000000001e-05,-1.5e-05,0.0,0 STARLINK-4095,1 53170U 22083AQ  22319.05321451 -.00001500  00000-0 -76126-4 0  9993,2 53170  53.2151 193.8744 0001923  45.9284 314.1866 15.08842407 19297,6917.873000000001,95.437,541.068,538.408,0.0
53170.0,STARLINK-4095,PAYLOAD,2022-11-15 09:13:32,15.08849251,0.0002019,53.2154,192.3879,45.3349,314.7808,-5.634600000000001e-05,-1.185e-05,0.0,0 STARLINK-4095,1 53170U 22083AQ  22319.38440878 -.00001185  00000-0 -56346-4 0  9995,2 53170  53.2154 192.3879 0002019  45.3349 314.7808 15.08849251 19348,6917.852,95.437,541.114,538.32,0.0
53170.0,STARLINK-4095,PAYLOAD,2022-11-15 20:21:14,15.08838115,0.0001984,53.2153,190.3063,44.7203,315.3949,0.00019116,2.755e-05,0.0,0 STARLINK-4095,1 53170U 22083AQ  22319.84808650  .00002755  00000-0  19116-3 0  9997,2 53170  53.2153 190.3063 0001984  44.7203 315.3949 15.08838115 18789,6917.886,95.438,541.124,538.379,0.0
53170.0,STARLINK-4095,PAYLOAD,2022-11-16 09:04:20,15.08828345,0.0002028,53.2145,187.9273,43.5731,316.5421,0.00023018,3.376e-05,0.0,0 STARLINK-4095,1 53170U 22083AQ  22320.37801193  .00003376  00000-0  23018-3 0  9998,2 53170  53.2145 187.9273 0002028  43.5731 316.5421 15.08828345 19499,6917.916,95.438,541.184,538.378,0.0
53170.0,STARLINK-4095,PAYLOAD,2022-11-16 20:12:01,15.08842087,0.0002019,53.2147,185.8453,46.4829,313.633,7.0015e-05,8.26e-06,0.0,0 STARLINK-4095,1 53170U 22083AQ  22320.84168756  .00000826  00000-0  70015-4 0  9998,2 53170  53.2147 185.8453 0002019  46.4829 313.6330 15.08842087 18932,6917.874,95.437,541.136,538.342,0.0
